NORAD_CAT_ID,OBJECT_NAME,OBJECT_TYPE,EPOCH,MEAN_MOTION,ECCENTRICITY,INCLINATION,RA_OF_ASC_NODE,ARG_OF_PERICENTER,MEAN_ANOMALY,BSTAR,MEAN_MOTION_DOT,MEAN_MOTION_DDOT,TLE_LINE0,TLE_LINE1,TLE_LINE2,SEMIMAJOR_AXIS,PERIOD,APOGEE,PERIGEE,DECAYED
50842.0,STARLINK-3302,PAYLOAD,2023-01-27 20:44:04,15.08837611,0.0001167999999999,53.2136,242.533,86.1292,273.9833,8.9827e-05,1.142e-05,0.0,0 STARLINK-3302,1 50842U 22001AR  23027.86394074  .00001142  00000-0  89827-4 0  9995,2 50842  53.2136 242.5330 0001168  86.1292 273.9833 15.08837611 58631,6917.888000000001,95.438,540.561,538.945,0.0
50842.0,STARLINK-3302,PAYLOAD,2023-01-28 14:13:20,15.08748683,0.0001623,53.2154,239.2605,89.5526,270.5652,0.0012509,0.00019626,0.0,0 STARLINK-3302,1 50842U 22001AR  23028.59259298  .00019626  00000-0  12509-2 0  9991,2 50842  53.2154 239.2605 0001623  89.5526 270.5652 15.08748683 60031,6918.16,95.443,541.147,538.902,0.0
50842.0,STARLINK-3302,PAYLOAD,2023-01-28 20:34:51,15.08843771,0.0001093,53.2152,238.0715,93.3156,266.7962,1.0576e-05,-1.19e-06,0.0,0 STARLINK-3302,1 50842U 22001AR  23028.85753856 -.00000119  00000-0  10576-4 0  9991,2 50842  53.2152 238.0715 0001093  93.3156 266.7962 15.08843771 60070,6917.869,95.437,540.49,538.978,0.0
50842.0,STARLINK-3302,PAYLOAD,2023-01-29 14:04:06,15.08836005,0.0001114,53.215,234.8002,88.5757,271.5362,5.8226e-05,6.39e-06,0.0,0 STARLINK-3302,1 50842U 22001AR  23029.58618291  .00000639  00000-0  58226-4 0  9995,2 50842  53.2150 234.8002 0001114  88.5757 271.5362 15.08836005 60180,6917.893,95.438,540.528,538.987,0.0
50842.0,STARLINK-3302,PAYLOAD,2023-01-29 22:01:01,15.08822509,0.0001148,53.215,233.3133,93.7793,266.333,0.00032535,4.891e-05,0.0,0 STARLINK-3302,1 50842U 22001AR  23029.91738371  .00004891  00000-0  32535-3 0  9992,2 50842  53.2150 233.3133 0001148  93.7793 266.3330 15.08822509 58946,6917.934,95.439,540.593,539.005,0.0
50842.0,STARLINK-3302,PAYLOAD,2023-01-30 05:57:57,15.08837879,0.0001141,53.215,231.8264,87.9867,272.1256,5.7697e-05,6.3e-06,0.0,0 STARLINK-3302,1 50842U 22001AR  23030.24858204  .00000630  00000-0  57697-4 0  9992,2 50842  53.2150 231.8264 0001141  87.9867 272.1256 15.08837879 58997,6917.887,95.438,540.541,538.963,0.0
50842.0,STARLINK-3302,PAYLOAD,2023-01-30 20:16:25,15.08837829,0.0001135,53.215,229.1498,86.7061,273.4061,4.2222e-05,3.84e-06,0.0,0 STARLINK-3302,1 50842U 22001AR  23030.84474338  .00000384  00000-0  42222-4 0  9994,2 50842  53.2150 229.1498 0001135  86.7061 273.4061 15.08837829 60370,6917.887,95.438,540.537,538.967,0.0
50842.0,STARLINK-3302,PAYLOAD,2023-01-31 13:45:40,15.08838201,0.0001135,53.2149,225.879,89.4345,270.6778,3.295e-05,2.37e-06,0.0,0 STARLINK-3302,1 50842U 22001AR  23031.57338442  .00000237  00000-0  32950-4 0  9994,2 50842  53.2149 225.8790 0001135  89.4345 270.6778 15.08838201 59198,6917.886,95.438,540.536,538.966,0.0
50842.0,STARLINK-3302,PAYLOAD,2023-01-31 21:42:35,15.08841478,0.0001144,53.2149,224.3921,89.0414,271.0709,5.595e-05,6.03e-06,0.0,0 STARLINK-3302,1 50842U 22001AR  23031.90458169  .00000603  00000-0  55950-4 0  9992,2 50842  53.2149 224.3921 0001144  89.0414 271.0709 15.08841478 59246,6917.876,95.437,540.532,538.949,0.0
50842.0,STARLINK-3302,PAYLOAD,2023-02-01 05:39:31,15.08840384,0.0001196,53.2149,222.9051,86.8504,273.2625,5.9152e-05,6.54e-06,0.0,0 STARLINK-3302,1 50842U 22001AR  23032.23578232  .00000654  00000-0  59152-4 0  9997,2 50842  53.2149 222.9051 0001196  86.8504 273.2625 15.08840384 60581,6917.879,95.438,540.572,538.917,0.0
50842.0,STARLINK-3302,PAYLOAD,2023-02-01 13:36:27,15.08837521,0.0001156,53.2154,221.4185,88.8674,271.2451,4.3717e-05,4.08e-06,0.0,0 STARLINK-3302,1 50842U 22001AR  23032.56698466  .00000408  00000-0  43717-4 0  9992,2 50842  53.2154 221.4185 0001156  88.8674 271.2451 15.08837521 59341,6917.888,95.438,540.553,538.953,0.0
50842.0,STARLINK-3302,PAYLOAD,2023-02-02 11:51:51,15.08839183,0.0001232,53.215,217.2549,86.5637,273.5496,5.5283e-05,5.92e-06,0.0,0 STARLINK-3302,1 50842U 22001AR  23033.49434443  .00000592  00000-0  55283-4 0  9993,2 50842  53.2150 217.2549 0001232  86.5637 273.5496 15.08839183 59488,6917.883,95.438,540.6,538.896,0.0
50842.0,STARLINK-3302,PAYLOAD,2023-02-03 11:42:38,15.08840542,0.0001182,53.2152,212.7943,85.6997,274.413,6.9723e-05,8.22e-06,0.0,0 STARLINK-3302,1 50842U 22001AR  23034.48794317  .00000822  00000-0  69723-4 0  9992,2 50842  53.2152 212.7943 0001182  85.6997 274.4130 15.08840542 59634,6917.879,95.438,540.561,538.926,0.0
50842.0,STARLINK-3302,PAYLOAD,2023-02-04 05:11:52,15.08842352,0.0001318,53.2144,209.5237,83.5395,276.5747,6.839e-05,8.01e-06,0.0,0 STARLINK-3302,1 50842U 22001AR  23035.21658180  .00000801  00000-0  68390-4 0  9997,2 50842  53.2144 209.5237 0001318  83.5395 276.5747 15.08842352 61030,6917.873,95.437,540.65,538.826,0.0
50842.0,STARLINK-3302,PAYLOAD,2023-02-04 11:33:25,15.08841731,0.0001413,53.2142,208.3345,82.8384,277.2769,4.762e-05,4.7e-06,0.0,0 STARLINK-3302,1 50842U 22001AR  23035.48154274  .00000470  00000-0  47620-4 0  9996,2 50842  53.2142 208.3345 0001413  82.8384 277.2769 15.08841731 59782,6917.875,95.437,540.718,538.763,0.0
50842.0,STARLINK-3302,PAYLOAD,2023-02-04 21:05:43,15.0884247,0.0001226,53.2147,206.5494,92.6934,267.4198,6.2064e-05,7e-06,0.0,0 STARLINK-3302,1 50842U 22001AR  23035.87898038  .00000700  00000-0  62064-4 0  9997,2 50842  53.2147 206.5494 0001226  92.6934 267.4198 15.08842470 59849,6917.873,95.437,540.586,538.89,0.0
50842.0,STARLINK-3302,PAYLOAD,2023-02-05 14:34:59,15.08833257,0.0001246,53.2151,203.2754,115.987,244.1251,-4.6418e-05,-1.026e-05,0.0,0 STARLINK-3302,1 50842U 22001AR  23036.60763085 -.00001026  00000-0 -46418-4 0  9991,2 50842  53.2151 203.2754 0001246 115.9870 244.1251 15.08833257 61249,6917.901,95.438,540.628,538.904,0.0
50842.0,STARLINK-3302,PAYLOAD,2023-02-05 19:21:09,15.08826576,0.0001011,53.215,202.3879,72.5344,287.5759,-8.0838e-05,-1.574e-05,0.0,0 STARLINK-3302,1 50842U 22001AR  23036.80635836 -.00001574  00000-0 -80838-4 0  9997,2 50842  53.2150 202.3879 0001011  72.5344 287.5759 15.08826576 61273,6917.921,95.438,540.486,539.087,0.0
50842.0,STARLINK-3302,PAYLOAD,2023-02-05 20:56:32,15.08825885,0.0001039,53.2152,202.0913,69.3437,290.7667,-8.9475e-05,-1.711e-05,0.0,0 STARLINK-3302,1 50842U 22001AR  23036.87259950 -.00001711  00000-0 -89475-4 0  9992,2 50842  53.2152 202.0913 0001039  69.3437 290.7667 15.08825885 59990,6917.924,95.438,540.507,539.07,0.0
50842.0,STARLINK-3302,PAYLOAD,2023-02-06 09:39:38,15.08823909,0.000103,53.2155,199.7122,69.2282,290.882,-4.7967e-05,-1.051e-05,0.0,0 STARLINK-3302,1 50842U 22001AR  23037.40252468 -.00001051  00000-0 -47967-4 0  9996,2 50842  53.2155 199.7122 0001030  69.2282 290.8820 15.08823909 60073,6917.93,95.439,540.507,539.082,0.0
50842.0,STARLINK-3302,PAYLOAD,2023-02-06 17:36:33,15.08831443,0.0001225,53.2156,198.2242,82.0418,278.0713,-2.4717e-05,-6.81e-06,0.0,0 STARLINK-3302,1 50842U 22001AR  23037.73372193 -.00000681  00000-0 -24717-4 0  9996,2 50842  53.2156 198.2242 0001225  82.0418 278.0713 15.08831443 60128,6917.907,95.438,540.619,538.924,0.0
50842.0,STARLINK-3302,PAYLOAD,2023-02-07 03:08:52,15.08832158,0.0001288,53.2158,196.4403,75.6762,284.4373,-2.64e-05,-7.08e-06,0.0,0 STARLINK-3302,1 50842U 22001AR  23038.13116475 -.00000708  00000-0 -26400-4 0  9991,2 50842  53.2158 196.4403 0001288  75.6762 284.4373 15.08832158 61474,6917.904,95.438,540.66,538.878,0.0
50842.0,STARLINK-3302,PAYLOAD,2023-02-07 14:16:32,15.0884853,0.0001189,53.2168,194.3579,99.0986,261.014,0.00030445,4.562e-05,0.0,0 STARLINK-3302,1 50842U 22001AR  23038.59482419  .00004562  00000-0  30445-3 0  9998,2 50842  53.2168 194.3579 0001189  99.0986 261.0140 15.08848530 61546,6917.854,95.437,540.542,538.897,0.0
50842.0,STARLINK-3302,PAYLOAD,2023-02-07 19:02:41,15.08861616,0.0001188,53.2162,193.4656,92.1194,267.9934,0.00042581,6.499e-05,0.0,0 STARLINK-3302,1 50842U 22001AR  23038.79353553  .00006499  00000-0  42581-3 0  9991,2 50842  53.2162 193.4656 0001188  92.1194 267.9934 15.08861616 61579,6917.814,95.436,540.501,538.857,0.0
50842.0,STARLINK-3302,PAYLOAD,2023-02-08 14:07:19,15.08851377,0.0001418,53.2167,189.8967,95.116,264.9994,4.8312e-07,-2.8e-06,0.0,0 STARLINK-3302,1 50842U 22001AR  23039.58842561 -.00000280  00000-0  48312-6 0  9995,2 50842  53.2167 189.8967 0001418  95.1160 264.9994 15.08851377 61699,6917.846,95.437,540.692,538.73,0.0
50842.0,STARLINK-3302,PAYLOAD,2023-02-08 17:18:05,15.08859303,0.000138,53.2159,189.3022,93.0439,267.0711,0.00049954,7.675e-05,0.0,0 STARLINK-3302,1 50842U 22001AR  23039.72090253  .00007675  00000-0  49954-3 0  9998,2 50842  53.2159 189.3022 0001380  93.0439 267.0711 15.08859303 60429,6917.821,95.436,540.641,538.732,0.0
50842.0,STARLINK-3302,PAYLOAD,2023-02-09 10:47:20,15.08856479,0.0001495,53.215,186.0314,74.5193,285.5965,0.00071336,0.00011088,0.0,0 STARLINK-3302,1 50842U 22001AR  23040.44954219  .00011088  00000-0  71336-3 0  9992,2 50842  53.2150 186.0314 0001495  74.5193 285.5965 15.08856479 60535,6917.83,95.437,540.729,538.661,0.0
50842.0,STARLINK-3302,PAYLOAD,2023-02-09 17:08:53,15.0884266,0.0001482,53.2152,184.8421,80.8136,279.3023,0.00034435,5.197e-05,0.0,0 STARLINK-3302,1 50842U 22001AR  23040.71450735  .00005197  00000-0  34435-3 0  9999,2 50842  53.2152 184.8421 0001482  80.8136 279.3023 15.08842660 61865,6917.872,95.437,540.762,538.712,0.0
50842.0,STARLINK-3302,PAYLOAD,2023-02-10 02:41:12,15.08841056,0.0001432,53.2155,183.0586,85.2769,274.8387,0.0002656,3.942e-05,0.0,0 STARLINK-3302,1 50842U 22001AR  23041.11194891  .00003942  00000-0  26560-3 0  9998,2 50842  53.2155 183.0586 0001432  85.2769 274.8387 15.08841056 60632,6917.877,95.437,540.733,538.752,0.0
50842.0,STARLINK-3302,PAYLOAD,2023-02-10 15:24:17,15.08843938,0.0001497,53.2156,180.6795,83.1189,276.9974,0.00035118,5.306e-05,0.0,0 STARLINK-3302,1 50842U 22001AR  23041.64186906  .00005306  00000-0  35118-3 0  9999,2 50842  53.2156 180.6795 0001497  83.1189 276.9974 15.08843938 62001,6917.868,95.437,540.769,538.698,0.0
